{
  "norad_id": 58545,
  "name": "STARLINK-31057",
  "history": [
    {
      "epoch": "2026-03-28T21:36:08.913888Z",
      "apogee_km": 476.13113638037794,
      "perigee_km": 474.367622997157,
      "latitude_deg": 7.707134140038859e-06,
      "longitude_deg": -176.63535355222035,
      "height_km": 476.42207187816246,
      "semi_major_axis_km": 6853.386379688767,
      "eccentricity": 0.00012866,
      "inclination_deg": 53.1607,
      "raan_deg": 333.7157,
      "arg_perigee_deg": 108.1374,
      "mean_anomaly_deg": 251.9767,
      "mean_motion_rev_day": 15.30188509
    },
    {
      "epoch": "2026-03-29T02:18:18.329472Z",
      "apogee_km": 476.0992772372829,
      "perigee_km": 474.3777093133722,
      "latitude_deg": 5.7765450858982445e-05,
      "longitude_deg": 111.72342259930532,
      "height_km": 476.19925517199925,
      "semi_major_axis_km": 6853.375493275327,
      "eccentricity": 0.0001256,
      "inclination_deg": 53.1603,
      "raan_deg": 332.8068,
      "arg_perigee_deg": 94.1734,
      "mean_anomaly_deg": 265.9411,
      "mean_motion_rev_day": 15.30192155
    },
    {
      "epoch": "2026-03-30T01:49:05.847168Z",
      "apogee_km": 475.99226176607226,
      "perigee_km": 474.4584792675505,
      "latitude_deg": -5.259216730407197e-05,
      "longitude_deg": 113.50879774015478,
      "height_km": 475.9806023054179,
      "semi_major_axis_km": 6853.362370516811,
      "eccentricity": 0.0001119,
      "inclination_deg": 53.1595,
      "raan_deg": 328.2559,
      "arg_perigee_deg": 79.251,
      "mean_anomaly_deg": 280.8616,
      "mean_motion_rev_day": 15.3019655
    },
    {
      "epoch": "2026-03-30T01:49:05.848032Z",
      "apogee_km": 475.99226176607226,
      "perigee_km": 474.4584792675505,
      "latitude_deg": -5.259216689696054e-05,
      "longitude_deg": 113.50879413029932,
      "height_km": 475.98060230542194,
      "semi_major_axis_km": 6853.362370516811,
      "eccentricity": 0.0001119,
      "inclination_deg": 53.1595,
      "raan_deg": 328.2559,
      "arg_perigee_deg": 79.251,
      "mean_anomaly_deg": 280.8616,
      "mean_motion_rev_day": 15.3019655
    },
    {
      "epoch": "2026-03-30T22:11:46.737600Z",
      "apogee_km": 476.05980340850783,
      "perigee_km": 474.30864276958437,
      "latitude_deg": 7.560463905398402e-06,
      "longitude_deg": 163.05667098483602,
      "height_km": 476.12925698786466,
      "semi_major_axis_km": 6853.321223089046,
      "eccentricity": 0.00012776,
      "inclination_deg": 53.1584,
      "raan_deg": 324.311,
      "arg_perigee_deg": 93.086,
      "mean_anomaly_deg": 267.0287,
      "mean_motion_rev_day": 15.30210331
    },
    {
      "epoch": "2026-03-31T21:42:35.490816Z",
      "apogee_km": 476.08158390121207,
      "perigee_km": 474.38194844720056,
      "latitude_deg": 1.1312185911944438e-05,
      "longitude_deg": 164.83756985714518,
      "height_km": 476.27136149483545,
      "semi_major_axis_km": 6853.368766174206,
      "eccentricity": 0.000124,
      "inclination_deg": 53.1596,
      "raan_deg": 319.7607,
      "arg_perigee_deg": 99.5851,
      "mean_anomaly_deg": 260.529,
      "mean_motion_rev_day": 15.30194408
    },
    {
      "epoch": "2026-04-01T21:13:23.186496Z",
      "apogee_km": 476.0288519363776,
      "perigee_km": 474.40734811971106,
      "latitude_deg": -9.687923825912508e-06,
      "longitude_deg": 166.62326862021735,
      "height_km": 476.2618165710673,
      "semi_major_axis_km": 6853.355100028044,
      "eccentricity": 0.0001183,
      "inclination_deg": 53.1601,
      "raan_deg": 315.2108,
      "arg_perigee_deg": 100.3376,
      "mean_anomaly_deg": 259.7758,
      "mean_motion_rev_day": 15.30198985
    },
    {
      "epoch": "2026-04-02T20:44:11.071392Z",
      "apogee_km": 475.9647375266304,
      "perigee_km": 474.4578233067332,
      "latitude_deg": 5.043700521868209e-05,
      "longitude_deg": 168.40523678964354,
      "height_km": 476.28229935214983,
      "semi_major_axis_km": 6853.3482804166815,
      "eccentricity": 0.00010994,
      "inclination_deg": 53.1588,
      "raan_deg": 310.6579,
      "arg_perigee_deg": 103.2593,
      "mean_anomaly_deg": 256.8531,
      "mean_motion_rev_day": 15.30201269
    },
    {
      "epoch": "2026-04-03T18:40:56.129952Z",
      "apogee_km": 475.94854022847176,
      "perigee_km": 474.535373487568,
      "latitude_deg": -2.1207464695315244e-06,
      "longitude_deg": -165.93203035070988,
      "height_km": 476.26459279424273,
      "semi_major_axis_km": 6853.37895685802,
      "eccentricity": 0.0001031,
      "inclination_deg": 53.1584,
      "raan_deg": 306.4097,
      "arg_perigee_deg": 100.1397,
      "mean_anomaly_deg": 259.972,
      "mean_motion_rev_day": 15.30190995
    },
    {
      "epoch": "2026-04-04T19:45:47.477952Z",
      "apogee_km": 475.8678481000343,
      "perigee_km": 474.6123094192053,
      "latitude_deg": -1.4860947307530123e-05,
      "longitude_deg": 171.97247216416068,
      "height_km": 476.20158878169576,
      "semi_major_axis_km": 6853.3770787596195,
      "eccentricity": 9.16e-05,
      "inclination_deg": 53.161,
      "raan_deg": 301.5582,
      "arg_perigee_deg": 95.7456,
      "mean_anomaly_deg": 264.3649,
      "mean_motion_rev_day": 15.30191624
    },
    {
      "epoch": "2026-04-05T13:00:22.823712Z",
      "apogee_km": 475.6757999909087,
      "perigee_km": 474.8705242968563,
      "latitude_deg": 9.315378863944658e-06,
      "longitude_deg": -90.71963603554715,
      "height_km": 476.0985498503681,
      "semi_major_axis_km": 6853.410162143882,
      "eccentricity": 5.875e-05,
      "inclination_deg": 53.1603,
      "raan_deg": 298.2215,
      "arg_perigee_deg": 79.4633,
      "mean_anomaly_deg": 280.6434,
      "mean_motion_rev_day": 15.30180544
    },
    {
      "epoch": "2026-04-05T20:50:38.469120Z",
      "apogee_km": 475.78663167809646,
      "perigee_km": 474.7010561524203,
      "latitude_deg": -2.3141135760881416e-05,
      "longitude_deg": 149.8758679474035,
      "height_km": 476.1773942249459,
      "semi_major_axis_km": 6853.380843915258,
      "eccentricity": 7.92e-05,
      "inclination_deg": 53.1595,
      "raan_deg": 296.7041,
      "arg_perigee_deg": 93.6853,
      "mean_anomaly_deg": 266.4238,
      "mean_motion_rev_day": 15.30190363
    },
    {
      "epoch": "2026-04-05T22:24:41.603040Z",
      "apogee_km": 475.78054889015584,
      "perigee_km": 474.675238200125,
      "latitude_deg": -5.489463303474676e-05,
      "longitude_deg": 125.995209706444,
      "height_km": 476.03043791487676,
      "semi_major_axis_km": 6853.36489354514,
      "eccentricity": 8.064e-05,
      "inclination_deg": 53.1591,
      "raan_deg": 296.4009,
      "arg_perigee_deg": 79.9883,
      "mean_anomaly_deg": 280.1208,
      "mean_motion_rev_day": 15.30195705
    },
    {
      "epoch": "2026-04-07T05:45:45.426240Z",
      "apogee_km": 476.0549240282953,
      "perigee_km": 474.40011063194106,
      "latitude_deg": 2.4965783147379688e-05,
      "longitude_deg": 8.371693538877631,
      "height_km": 475.9457400285482,
      "semi_major_axis_km": 6853.364517330118,
      "eccentricity": 0.00012073,
      "inclination_deg": 53.1583,
      "raan_deg": 290.3308,
      "arg_perigee_deg": 77.4497,
      "mean_anomaly_deg": 282.6639,
      "mean_motion_rev_day": 15.30195831
    }
  ]
}